{"fetched_at":"2026-03-30T06:02:59Z","count":15439,"tles":[{"name":"STARLINK-31983","line1":"1 60602U 24150V   26087.77171930  .00001584  00000+0  65592-4 0  9992","line2":"2 60602  53.1607 218.3364 0001076  70.4557 289.6560 15.30195524 90883","category":"Starlink"}]}